IRIDIUM 155             
1 43573U 18061E   25259.13012173  .00000069  00000+0  17510-4 0  9991
2 43573  86.4043 171.2155 0002417  86.1161 274.0311 14.34217680374073
IRIDIUM 154             
1 43574U 18061F   25259.18085928  .00000265  00000+0  87730-4 0  9994
2 43574  86.4047 171.3139 0002217  82.6449 277.4999 14.34218760374135
IRIDIUM 163             
1 43575U 18061G   25259.16183423  .00000139  00000+0  42494-4 0  9990
2 43575  86.4044 171.2461 0002151  88.7441 271.4001 14.34218033374104
IRIDIUM 156             
1 43576U 18061H   25259.20623312  .00000079  00000+0  21073-4 0  9995
2 43576  86.4045 171.2345 0002582  85.2406 274.9085 14.34218024374108
IRIDIUM 164             
1 43577U 18061J   25259.18720458  .00000014  00000+0 -20290-5 0  9993
2 43577  86.4045 171.2784 0002239  78.7473 281.3975 14.34217873374141
IRIDIUM 159             
1 43578U 18061K   25259.15550717  .00000230  00000+0  75207-4 0  9996
2 43578  86.4045 171.2343 0002063  82.3021 277.8409 14.34218663374104
IRIDIUM 180             
1 43922U 19002A   25259.01545049  .00000070  00000+0  17807-4 0  9996
2 43922  86.3927 108.2379 0002037  90.2507 269.8922 14.34217900349692
IRIDIUM 176             
1 43923U 19002B   25259.04521633  .00000722  00000+0  11057-3 0  9997
2 43923  86.6052 108.2089 0002923  93.4157 266.7395 14.72262033358917
IRIDIUM 168             
1 43924U 19002C   25259.07887624  .00000097  00000+0  27598-4 0  9999
2 43924  86.3929 108.2810 0002116  88.7534 271.3904 14.34218139349688
IRIDIUM 173             
1 43925U 19002D   25259.06619062  .00000181  00000+0  57529-4 0  9999
2 43925  86.3927 108.1864 0002160  92.4851 267.6592 14.34218081349663
IRIDIUM 169             
1 43926U 19002E   25259.13295059  .00000263  00000+0  79581-4 0  9997
2 43926  86.4253 139.7826 0003162 102.6258 257.5294 14.38610111350824
IRIDIUM 172             
1 43927U 19002F   25259.05984798  .00000020  00000+0  11691-6 0  9995
2 43927  86.3926 108.1957 0001737  89.8981 270.2414 14.34217829349673
IRIDIUM 175             
1 43928U 19002G   25258.97239266  .00001009  00000+0  15611-3 0  9990
2 43928  86.1473  55.5660 0002978  78.0614 282.0937 14.72247788358890
IRIDIUM 171             
1 43929U 19002H   25259.04082033  .00000188  00000+0  59929-4 0  9996
2 43929  86.3936 108.4803 0002326  80.8495 279.2964 14.34218530349663
IRIDIUM 170             
1 43930U 19002J   25259.05140655  .00000727  00000+0  11130-3 0  9994
2 43930  86.6051 108.2105 0002416  85.5588 274.5905 14.72259527358929
IRIDIUM 167             
1 43931U 19002K   25259.03447926  .00000043  00000+0  81361-5 0  9990
2 43931  86.3926 108.2267 0002546  83.9525 276.1961 14.34217839349663
IRIDIUM 181             
1 56726U 23068S   25259.18602514  .00000361  00000+0  10134-3 0  9996
2 56726  86.4581 171.2678 0002301  69.6865 290.4583 14.43313894122914
IRIDIUM 177             
1 56727U 23068T   25259.26567679  .00000407  00000+0  50022-4 0  9990
2 56727  86.1918  98.8914 0002434  81.9319 278.2178 14.80229334125846
IRIDIUM 174             
1 56728U 23068U   25259.03906470  .00000738  00000+0  11319-3 0  9994
2 56728  86.6061 108.3355 0002134  95.7729 264.3731 14.72250639125688
IRIDIUM 178             
1 56729U 23068V   25259.11961251  .00001075  00000+0  13810-3 0  9995
2 56729  86.6573 139.9100 0002545  87.8232 272.3281 14.80232626125822
IRIDIUM 179             
1 56730U 23068W   25259.11424015  .00001112  00000+0  14289-3 0  9992
2 56730  86.6832 148.0599 0002887  83.6551 276.5000 14.80235217125826
